COSMOS 2251 DEB         
1 36000U 93036AWS 17343.97214836  .00000715  00000-0  21074-3 0  9998
2 36000  74.0194 207.0438 0080878 308.3991  50.9920 14.43649754177146
